COMMENT,ORIGINATOR,NORAD_CAT_ID,OBJECT_NAME,OBJECT_TYPE,CLASSIFICATION_TYPE,INTLDES,EPOCH,EPOCH_MICROSECONDS,MEAN_MOTION,ECCENTRICITY,INCLINATION,RA_OF_ASC_NODE,ARG_OF_PERICENTER,MEAN_ANOMALY,EPHEMERIS_TYPE,ELEMENT_SET_NO,REV_AT_EPOCH,BSTAR,MEAN_MOTION_DOT,MEAN_MOTION_DDOT,FILE,TLE_LINE0,TLE_LINE1,TLE_LINE2,OBJECT_ID,OBJECT_NUMBER,SEMIMAJOR_AXIS,PERIOD,APOGEE,PERIGEE,DECAYED
"GENERATED VIA SPACETRACK.ORG API","18 SPCS","55097","SPACEBEE-160","PAYLOAD","U","23001CS","2024-01-08 03:51:04","506048","15.30677129","0.0012193","97.4486","72.517","7.5944","352.5479","0","999","5633","0.00087234","0.00025906","0","4156666","0 SPACEBEE-160","1 55097U 23001CS  24008.16046882  .00025906  00000-0  87234-3 0  9990","2 55097  97.4486  72.5170 0012193   7.5944 352.5479 15.30677129 56336","2023-001CS","55097","6851.928","94.076","482.147","465.438","0"
"GENERATED VIA SPACETRACK.ORG API","18 SPCS","55097","SPACEBEE-160","PAYLOAD","U","23001CS","2024-01-08 16:24:09","596160","15.30706755","0.0012121","97.4486","73.0414","5.7519","354.3859","0","999","5641","0.00091549","0.00027221","0","4156930","0 SPACEBEE-160","1 55097U 23001CS  24008.68344440  .00027221  00000-0  91549-3 0  9994","2 55097  97.4486  73.0414 0012121   5.7519 354.3859 15.30706755 56411","2023-001CS","55097","6851.839","94.074","482.010","465.399","0"
"GENERATED VIA SPACETRACK.ORG API","18 SPCS","55097","SPACEBEE-160","PAYLOAD","U","23001CS","2024-01-09 03:23:05","795520","15.30734595","0.0012091","97.4488","73.5004","4.059","356.0747","0","999","5648","0.0010128","0.00030159","0","4157242","0 SPACEBEE-160","1 55097U 23001CS  24009.14103930  .00030159  00000-0  10128-2 0  9990","2 55097  97.4488  73.5004 0012091   4.0590 356.0747 15.30734595 56485","2023-001CS","55097","6851.756","94.072","481.906","465.337","0"
"GENERATED VIA SPACETRACK.ORG API","18 SPCS","55097","SPACEBEE-160","PAYLOAD","U","23001CS","2024-01-09 03:23:05","795520","15.30734595","0.0012091","97.4488","73.5004","4.059","356.0747","0","999","5648","0.0010128","0.00030159","0","4157515","0 SPACEBEE-160","1 55097U 23001CS  24009.14103930  .00030159  00000-0  10128-2 0  9990","2 55097  97.4488  73.5004 0012091   4.0590 356.0747 15.30734595 56485","2023-001CS","55097","6851.756","94.072","481.906","465.337","0"
"GENERATED VIA SPACETRACK.ORG API","18 SPCS","55097","SPACEBEE-160","PAYLOAD","U","23001CS","2024-01-09 20:38:32","552736","15.30781996","0.0011999","97.4486","74.2221","1.6443","358.4836","0","999","5659","0.0010771","0.00032133","0","4157773","0 SPACEBEE-160","1 55097U 23001CS  24009.86009899  .00032133  00000-0  10771-2 0  9996","2 55097  97.4486  74.2221 0011999   1.6443 358.4836 15.30781996 56592","2023-001CS","55097","6851.615","94.070","481.701","465.259","0"
"GENERATED VIA SPACETRACK.ORG API","18 SPCS","55097","SPACEBEE-160","PAYLOAD","U","23001CS","2024-01-10 02:55:03","635904","15.30799638","0.0012028","97.4485","74.4845","0.65","359.4755","0","999","5663","0.0010713","0.00031977","0","4158336","0 SPACEBEE-160","1 55097U 23001CS  24010.12156986  .00031977  00000-0  10713-2 0  9998","2 55097  97.4485  74.4845 0012028   0.6500 359.4755 15.30799638 56630","2023-001CS","55097","6851.562","94.068","481.668","465.186","0"
"GENERATED VIA SPACETRACK.ORG API","18 SPCS","55097","SPACEBEE-160","PAYLOAD","U","23001CS","2024-01-10 15:28:04","965888","15.30837303","0.001193","97.4482","75.009","358.8898","1.2314","0","999","5671","0.001122","0.00033539","0","4158604","0 SPACEBEE-160","1 55097U 23001CS  24010.64450192  .00033539  00000-0  11220-2 0  9991","2 55097  97.4482  75.0090 0011930 358.8898   1.2314 15.30837303 56719","2023-001CS","55097","6851.450","94.066","481.489","465.141","0"
"GENERATED VIA SPACETRACK.ORG API","18 SPCS","55097","SPACEBEE-160","PAYLOAD","U","23001CS","2024-01-11 04:01:05","109600","15.30880573","0.0011897","97.4481","75.5342","357.1465","2.9705","0","999","5679","0.0013108","0.00039277","0","4159230","0 SPACEBEE-160","1 55097U 23001CS  24011.16742025  .00039277  00000-0  13108-2 0  9990","2 55097  97.4481  75.5342 0011897 357.1465   2.9705 15.30880573 56794","2023-001CS","55097","6851.321","94.064","481.337","465.035","0"
"GENERATED VIA SPACETRACK.ORG API","18 SPCS","55097","SPACEBEE-160","PAYLOAD","U","23001CS","2024-01-11 14:59:56","664960","15.30918902","0.0011864","97.4479","75.9934","355.6457","4.4679","0","999","5686","0.0013032","0.00039094","0","4159265","0 SPACEBEE-160","1 55097U 23001CS  24011.62496140  .00039094  00000-0  13032-2 0  9998","2 55097  97.4479  75.9934 0011864 355.6457   4.4679 15.30918902 56863","2023-001CS","55097","6851.206","94.061","481.200","464.943","0"
"GENERATED VIA SPACETRACK.ORG API","18 SPCS","55097","SPACEBEE-160","PAYLOAD","U","23001CS","2024-01-11 16:34:03","952992","15.30923976","0.0011861","97.4478","76.059","355.4095","4.7035","0","999","5687","0.0012899","0.00038698","0","4159545","0 SPACEBEE-160","1 55097U 23001CS  24011.69032353  .00038698  00000-0  12899-2 0  9996","2 55097  97.4478  76.0590 0011861 355.4095   4.7035 15.30923976 56872","2023-001CS","55097","6851.191","94.061","481.182","464.930","0"
"GENERATED VIA SPACETRACK.ORG API","18 SPCS","55097","SPACEBEE-160","PAYLOAD","U","23001CS","2024-01-12 03:32:54","458592","15.30959753","0.0011842","97.4474","76.5183","353.6854","6.4236","0","999","5694","0.0012923","0.00038814","0","4160109","0 SPACEBEE-160","1 55097U 23001CS  24012.14785253  .00038814  00000-0  12923-2 0  9999","2 55097  97.4474  76.5183 0011842 353.6854   6.4236 15.30959753 56945","2023-001CS","55097","6851.085","94.059","481.063","464.836","0"
"GENERATED VIA SPACETRACK.ORG API","18 SPCS","55097","SPACEBEE-160","PAYLOAD","U","23001CS","2024-01-12 17:39:58","9248","15.31005503","0.0011808","97.447","77.1086","351.5525","8.5516","0","999","5703","0.0012428","0.00037369","0","4160381","0 SPACEBEE-160","1 55097U 23001CS  24012.73608807  .00037369  00000-0  12428-2 0  9997","2 55097  97.4470  77.1086 0011808 351.5525   8.5516 15.31005503 57035","2023-001CS","55097","6850.948","94.056","480.903","464.723","0"
"GENERATED VIA SPACETRACK.ORG API","18 SPCS","55097","SPACEBEE-160","PAYLOAD","U","23001CS","2024-01-12 20:48:11","902752","15.31017269","0.0011777","97.4469","77.2398","351.0277","9.0751","0","999","5705","0.0013246","0.00039861","0","4160399","0 SPACEBEE-160","1 55097U 23001CS  24012.86680443  .00039861  00000-0  13246-2 0  9995","2 55097  97.4469  77.2398 0011777 351.0277   9.0751 15.31017269 57055","2023-001CS","55097","6850.913","94.055","480.846","464.710","0"
"GENERATED VIA SPACETRACK.ORG API","18 SPCS","55097","SPACEBEE-160","PAYLOAD","U","23001CS","2024-01-13 03:04:39","517824","15.31037352","0.0011773","97.4469","77.5021","350.0127","10.0878","0","999","5709","0.0012974","0.00039061","0","4160970","0 SPACEBEE-160","1 55097U 23001CS  24013.12823516  .00039061  00000-0  12974-2 0  9994","2 55097  97.4469  77.5021 0011773 350.0127  10.0878 15.31037352 57091","2023-001CS","55097","6850.853","94.054","480.784","464.653","0"
"GENERATED VIA SPACETRACK.ORG API","18 SPCS","55097","SPACEBEE-160","PAYLOAD","U","23001CS","2024-01-14 04:10:26","799456","15.31123873","0.0011609","97.4466","78.5515","346.5687","13.5243","0","999","5725","0.0013697","0.00041363","0","4161549","0 SPACEBEE-160","1 55097U 23001CS  24014.17392129  .00041363  00000-0  13697-2 0  9992","2 55097  97.4466  78.5515 0011609 346.5687  13.5243 15.31123873 57252","2023-001CS","55097","6850.595","94.049","480.413","464.507","0"
"GENERATED VIA SPACETRACK.ORG API","18 SPCS","55097","SPACEBEE-160","PAYLOAD","U","23001CS","2024-01-14 04:10:26","799456","15.31123873","0.0011609","97.4466","78.5515","346.5687","13.5243","0","999","5725","0.0013697","0.00041363","0","4161833","0 SPACEBEE-160","1 55097U 23001CS  24014.17392129  .00041363  00000-0  13697-2 0  9992","2 55097  97.4466  78.5515 0011609 346.5687  13.5243 15.31123873 57252","2023-001CS","55097","6850.595","94.049","480.413","464.507","0"
"GENERATED VIA SPACETRACK.ORG API","18 SPCS","55097","SPACEBEE-160","PAYLOAD","U","23001CS","2024-01-14 16:43:18","493248","15.31169786","0.0011533","97.4465","79.0763","344.8214","15.268","0","999","5733","0.0014242","0.00043082","0","4162100","0 SPACEBEE-160","1 55097U 23001CS  24014.69674182  .00043082  00000-0  14242-2 0  9998","2 55097  97.4465  79.0763 0011533 344.8214  15.2680 15.31169786 57331","2023-001CS","55097","6850.458","94.046","480.224","464.422","0"
"GENERATED VIA SPACETRACK.ORG API","18 SPCS","55097","SPACEBEE-160","PAYLOAD","U","23001CS","2024-01-15 03:42:02","546496","15.31214151","0.0011491","97.4462","79.5353","343.0972","16.9885","0","999","5740","0.0015713","0.00047633","0","4162671","0 SPACEBEE-160","1 55097U 23001CS  24015.15419614  .00047633  00000-0  15713-2 0  9997","2 55097  97.4462  79.5353 0011491 343.0972  16.9885 15.31214151 57403","2023-001CS","55097","6850.326","94.043","480.062","464.319","0"
"GENERATED VIA SPACETRACK.ORG API","18 SPCS","55097","SPACEBEE-160","PAYLOAD","U","23001CS","2024-01-15 03:42:02","546496","15.31214151","0.0011491","97.4462","79.5353","343.0972","16.9885","0","999","5740","0.0015713","0.00047633","0","4162722","0 SPACEBEE-160","1 55097U 23001CS  24015.15419614  .00047633  00000-0  15713-2 0  9997","2 55097  97.4462  79.5353 0011491 343.0972  16.9885 15.31214151 57403","2023-001CS","55097","6850.326","94.043","480.062","464.319","0"
"GENERATED VIA SPACETRACK.ORG API","18 SPCS","55097","SPACEBEE-160","PAYLOAD","U","23001CS","2024-01-15 17:48:57","551328","15.31265708","0.0011432","97.446","80.1258","340.883","19.1981","0","999","5749","0.0013914","0.00042207","0","4162957","0 SPACEBEE-160","1 55097U 23001CS  24015.74233277  .00042207  00000-0  13914-2 0  9994","2 55097  97.4460  80.1258 0011432 340.8830  19.1981 15.31265708 57491","2023-001CS","55097","6850.172","94.040","479.868","464.206","0"
